[
    {
        "Altitude(m)": 624792.7447407335,
        "Argument of Periapsis(deg)": 0.0,
        "Eccentricity": 0.0,
        "Inclination(deg)": 60.0,
        "Latitude(deg)": -59.147004712431134,
        "Longitude(deg)": 134.02629135553647,
        "Mean Anomaly(deg)": -98.18179999999998,
        "RAAN(deg)": 340.00000000000006,
        "Satellite Name": "Test1 1512",
        "Satellite Number": 1512,
        "Semi-Major Axis(m)": 6980739.136638005,
        "Time(s)": 0
    },
    {
        "Altitude(m)": 624842.13728607,
        "Argument of Periapsis(deg)": 0.00010418945913296404,
        "Eccentricity": 0.0,
        "Inclination(deg)": 60.0,
        "Latitude(deg)": -59.28908963656568,
        "Longitude(deg)": 135.1557920735551,
        "Mean Anomaly(deg)": -97.56169385453813,
        "RAAN(deg)": 339.99957995086027,
        "Satellite Name": "Test1 1512",
        "Satellite Number": 1512,
        "Semi-Major Axis(m)": 6980739.136638005,
        "Time(s)": 10
    }
]